54671,ONEWEB-0607,2022,108.94,148.0,+,87.93,Active,1,LEO,USA,UK,Commercial,Communications,Falcon,1 54671U 22166AF  24248.36362884  .00000127  00000+0  27699-3 0  9995,2 54671  87.9348  13.5412 0001688  90.8076 269.3252 13.21823625 85569,13.21823625,0.0001688,LEO
54672,ONEWEB-0608,2022,108.94,148.0,+,87.94,Active,1,LEO,USA,UK,Commercial,Communications,Falcon,1 54672U 22166AG  24248.36994459  .00000149  00000+0  32961-3 0  9997,2 54672  87.9356  13.5660 0001718  83.0809 277.0520 13.21826129 85573,13.21826129,0.0001718,LEO
54673,ONEWEB-0610,2022,108.94,148.0,+,87.93,Active,1,LEO,USA,UK,Commercial,Communications,Falcon,1 54673U 22166AH  24248.42672029  .00000079  00000+0  15979-3 0  9993,2 54673  87.9346  13.5458 0001843  83.7298 276.4045 13.21825771 85483,13.21825771,0.0001843,LEO
54674,ONEWEB-0611,2022,108.94,148.0,+,87.93,Active,1,LEO,USA,UK,Commercial,Communications,Falcon,1 54674U 22166AJ  24248.42040597  .00000249  00000+0  57039-3 0  9995,2 54674  87.9349  13.5457 0001604 116.0300 244.0999 13.21823448 85472,13.21823448,0.0001604,LEO
54675,ONEWEB-0612,2022,108.94,148.0,+,87.93,Active,1,LEO,USA,UK,Commercial,Communications,Falcon,1 54675U 22166AK  24248.35733180  .00000147  00000+0  32558-3 0  9991,2 54675  87.9347  13.5397 0001771  90.3256 269.8081 13.21824923 85457,13.21824923,0.0001771,LEO
54676,ONEWEB-0615,2022,108.94,148.0,+,87.93,Active,1,LEO,USA,UK,Commercial,Communications,Falcon,1 54676U 22166AL  24248.41407682  .00000009  00000+0 -86887-5 0  9998,2 54676  87.9348  13.5536 0001529  94.2538 265.8770 13.21828061 85471,13.21828061,0.0001529,LEO
54677,ONEWEB-0655,2022,108.94,148.0,+,87.94,Active,1,LEO,USA,UK,Commercial,Communications,Falcon,1 54677U 22166AM  24248.38727950 -.00000280  00000+0 -70871-3 0  9994,2 54677  87.9350  13.5612 0001281  94.2669 265.8611 13.21824204 85468,13.21824204,0.0001281,LEO
54678,ONEWEB-0659,2022,108.94,148.0,+,87.93,Active,1,LEO,USA,UK,Commercial,Communications,Falcon,1 54678U 22166AN  24248.40461913 -.00000284  00000+0 -71961-3 0  9997,2 54678  87.9347  13.5634 0001893 101.9739 258.1607 13.21824092 85557,13.21824092,0.0001893,LEO
